OBJECT_NAME,OBJECT_ID,EPOCH,MEAN_MOTION,ECCENTRICITY,INCLINATION,RA_OF_ASC_NODE,ARG_OF_PERICENTER,MEAN_ANOMALY,EPHEMERIS_TYPE,CLASSIFICATION_TYPE,NORAD_CAT_ID,ELEMENT_SET_NO,REV_AT_EPOCH,BSTAR,MEAN_MOTION_DOT,MEAN_MOTION_DDOT
ONEWEB-0395,2021-132G,2026-06-15T13:33:19.531296,13.11419351,.0002024,87.8887,21.3904,89.0138,271.1221,0,U,50475,999,21550,-.33587743E-3,-.106E-5,0
ONEWEB-0396,2021-132H,2026-06-15T11:57:03.238560,13.18685421,.00019467,87.9169,335.7907,87.6496,272.4859,0,U,50476,999,22141,.2610753E-3,.116E-5,0
ONEWEB-0397,2021-132J,2026-06-15T12:18:54.612576,13.18685506,.00018682,87.9169,335.7878,84.7913,275.3432,0,U,50477,999,22139,.15995567E-3,.76E-6,0
ONEWEB-0398,2021-132K,2026-06-15T14:36:47.708928,13.11414838,.00019495,87.8894,21.3720,94.5340,265.6011,0,U,50478,999,21540,-.29405923E-3,-.92E-6,0
ONEWEB-0399,2021-132L,2026-06-15T14:17:17.071008,13.11414878,.00021573,87.8894,21.3856,75.1562,284.9805,0,U,50479,999,21539,.11855019E-2,.433E-5,0
ONEWEB-0400,2021-132M,2026-06-15T11:47:20.982048,13.18686111,.0001924,87.9170,335.7818,97.6893,262.4458,0,U,50480,999,22138,.21194385E-3,.96E-6,0
ONEWEB-0401,2021-132N,2026-06-15T11:03:38.378304,13.18685354,.00016355,87.9171,335.7851,87.7264,272.4055,0,U,50481,999,22138,-.7091156E-5,.1E-6,0
ONEWEB-0402,2021-132P,2026-06-15T11:59:29.953536,13.18685965,.00015508,87.9167,335.7667,79.5727,280.5580,0,U,50482,999,22141,.67613452E-4,.4E-6,0
ONEWEB-0403,2021-132Q,2026-06-15T12:35:54.297600,13.18685310,.00019897,87.9168,335.7859,90.3201,269.8159,0,U,50483,999,22137,.43389439E-4,.3E-6,0
ONEWEB-0404,2021-132R,2026-06-15T13:50:25.753344,13.11418393,.00021447,87.8890,21.3878,83.2692,276.8680,0,U,50484,999,21548,.11008631E-2,.403E-5,0
ONEWEB-0405,2021-132S,2026-06-15T12:55:20.325216,13.18686863,.00019994,87.9173,335.7678,105.5677,254.5676,0,U,50485,999,22177,-.24508214E-4,.3E-7,0
ONEWEB-0406,2021-132T,2026-06-15T10:53:55.764096,13.18685415,.00023439,87.9165,335.8011,86.4840,273.6561,0,U,50486,999,22139,.13412992E-3,.66E-6,0
ONEWEB-0407,2021-132U,2026-06-15T12:33:30.566016,13.18675293,.00015683,87.9169,335.7792,95.6750,264.4561,0,U,50487,999,22134,-.24546711E-2,-.955E-5,0
ONEWEB-0409,2021-132V,2026-06-15T13:47:58.426656,13.11419477,.0002119,87.8894,21.3762,86.3128,273.8242,0,U,50488,999,21537,.10201211E-2,.374E-5,0
ONEWEB-0412,2021-132W,2026-06-15T12:16:28.705440,13.18685147,.0001643,87.9166,335.7902,84.3979,275.7340,0,U,50489,999,22143,-.12217861E-4,.8E-7,0
ONEWEB-0413,2021-132X,2026-06-15T12:23:47.432544,13.18676016,.00015423,87.9157,335.7881,89.7176,270.4133,0,U,50490,999,22137,.48902459E-2,.1941E-4,0
ONEWEB-0414,2021-132Y,2026-06-15T12:01:55.131456,13.18685473,.00018369,87.9170,335.7726,86.4491,273.6851,0,U,50491,999,22140,.4308599E-5,.15E-6,0
ONEWEB-0417,2021-132Z,2026-06-15T12:14:03.354720,13.18685806,.00020879,87.9160,335.7908,90.7847,269.3525,0,U,50492,999,22138,.15878205E-3,.76E-6,0
ONEWEB-0418,2021-132AA,2026-06-15T12:28:24.437856,13.18689663,.00020891,87.9171,335.7883,86.1025,274.0346,0,U,50493,999,22144,-.17242366E-2,-.667E-5,0
ONEWEB-0419,2021-132AB,2026-06-15T12:55:10.248384,13.18666132,.00021037,87.9170,335.7841,96.7917,263.3454,0,U,50494,999,22136,.9666699E-5,.17E-6,0
ONEWEB-0420,2021-132AC,2026-06-15T12:04:20.420832,13.18685776,.00016747,87.9160,335.7943,95.5002,264.6321,0,U,50495,999,22135,.14894602E-3,.72E-6,0
ONEWEB-0421,2021-132AD,2026-06-15T11:54:37.689984,13.18685295,.00018175,87.9165,335.7931,80.7193,279.4144,0,U,50496,999,22139,.13780433E-3,.67E-6,0
ONEWEB-0424,2021-132AE,2026-06-15T10:58:47.231040,13.18685125,.00020492,87.9168,335.7988,100.6716,259.4647,0,U,50497,999,22141,.9565392E-5,.17E-6,0
ONEWEB-0426,2021-132AF,2026-06-15T11:48:32.773536,13.18688857,.00022994,87.9169,335.7829,77.4653,282.6737,0,U,50498,999,22136,.75021869E-4,.42E-6,0
ONEWEB-0427,2021-132AG,2026-06-15T12:45:37.319616,13.18685213,.00020397,87.9172,335.7640,89.8134,270.3232,0,U,50499,999,22139,-.11107489E-3,-.31E-6,0
ONEWEB-0429,2021-132AH,2026-06-15T12:26:11.774112,13.18685890,.00017221,87.9162,335.7912,93.5828,266.5501,0,U,50500,999,22136,.16718429E-3,.79E-6,0
ONEWEB-0430,2021-132AJ,2026-06-15T12:09:11.762496,13.18686139,.00017868,87.9163,335.7919,100.6714,259.4619,0,U,50501,999,22140,-.11709981E-3,-.33E-6,0
ONEWEB-0432,2021-132AK,2026-06-15T11:19:24.863520,13.17155017,.00021339,87.9169,335.7755,108.9041,251.2322,0,U,50502,999,22135,.11091501E-3,.56E-6,0
ONEWEB-0440,2021-132AL,2026-06-15T12:38:19.948992,13.18685516,.0001577,87.9170,335.7838,85.2751,274.8561,0,U,50503,999,22135,.72134676E-4,.41E-6,0
ONEWEB-0450,2021-132AM,2026-06-15T12:28:49.738368,13.18685637,.00016693,87.9159,335.7905,96.2025,263.9297,0,U,50504,999,22138,-.12446671E-3,-.36E-6,0
